[Satellite]
VERSION=1.1
NAME=STARLINK-1221
NICKNAME=STARLINK-1221
TLE1=1 45227U 20012BB  20078.25001157  .00230771  00000-0  24177-2 0  9996
TLE2=2 45227  53.0004 121.2617 0010129 273.1879 122.8740 15.63096724  4982
STATUS=0
